IXPE                    
1 49954U 21121A   24282.91668981  .00018957  00000+0  13929-2 0  9999
2 49954   0.2300 268.6060 0008898 172.2078 114.4476 15.00515799154993
